[{"OBJECT_NAME":"STARLINK-30914","OBJECT_ID":"2023-178D","EPOCH":"2026-03-09T22:51:21.550464","MEAN_MOTION":15.30181575,"ECCENTRICITY":0.00011197,"INCLINATION":53.1612,"RA_OF_ASC_NODE":359.6999,"ARG_OF_PERICENTER":68.5239,"MEAN_ANOMALY":291.5881,"EPHEMERIS_TYPE":0,"CLASSIFICATION_TYPE":"U","NORAD_CAT_ID":58377,"ELEMENT_SET_NO":999,"REV_AT_EPOCH":12993,"BSTAR":0.00020649459,"MEAN_MOTION_DOT":5.758e-5,"MEAN_MOTION_DDOT":0},{"OBJECT_NAME":"EXO-0","OBJECT_ID":"2023-174DK","EPOCH":"2026-03-09T17:03:04.419648","MEAN_MOTION":15.32821991,"ECCENTRICITY":0.00098779,"INCLINATION":97.3864,"RA_OF_ASC_NODE":148.9039,"ARG_OF_PERICENTER":157.1125,"MEAN_ANOMALY":203.0559,"EPHEMERIS_TYPE":0,"CLASSIFICATION_TYPE":"U","NORAD_CAT_ID":59175,"ELEMENT_SET_NO":999,"REV_AT_EPOCH":12979,"BSTAR":0.00036716083,"MEAN_MOTION_DOT":0.00011582,"MEAN_MOTION_DDOT":0}]
